[{"OBJECT_NAME":"O3B FM5","OBJECT_ID":"2013-031A","EPOCH":"2026-04-26T16:02:12.213024","MEAN_MOTION":5.0011649,"ECCENTRICITY":0.000314,"INCLINATION":0.1023,"RA_OF_ASC_NODE":359.9231,"ARG_OF_PERICENTER":24.6234,"MEAN_ANOMALY":335.4669,"EPHEMERIS_TYPE":0,"CLASSIFICATION_TYPE":"U","NORAD_CAT_ID":39188,"ELEMENT_SET_NO":999,"REV_AT_EPOCH":23446,"BSTAR":0,"MEAN_MOTION_DOT":-2.7e-7,"MEAN_MOTION_DDOT":0},{"OBJECT_NAME":"O3B FM4","OBJECT_ID":"2013-031B","EPOCH":"2026-04-26T18:53:59.250048","MEAN_MOTION":5.00115192,"ECCENTRICITY":0.0005149,"INCLINATION":0.0493,"RA_OF_ASC_NODE":346,"ARG_OF_PERICENTER":48.9621,"MEAN_ANOMALY":325.0702,"EPHEMERIS_TYPE":0,"CLASSIFICATION_TYPE":"U","NORAD_CAT_ID":39189,"ELEMENT_SET_NO":999,"REV_AT_EPOCH":23447,"BSTAR":0,"MEAN_MOTION_DOT":-2.7e-7,"MEAN_MOTION_DDOT":0},{"OBJECT_NAME":"O3B FM2","OBJECT_ID":"2013-031C","EPOCH":"2026-04-26T15:40:35.959872","MEAN_MOTION":5.00115974,"ECCENTRICITY":0.0002788,"INCLINATION":0.0471,"RA_OF_ASC_NODE":339.2001,"ARG_OF_PERICENTER":54.2019,"MEAN_ANOMALY":326.6141,"EPHEMERIS_TYPE":0,"CLASSIFICATION_TYPE":"U","NORAD_CAT_ID":39190,"ELEMENT_SET_NO":999,"REV_AT_EPOCH":23453,"BSTAR":0,"MEAN_MOTION_DOT":-2.7e-7,"MEAN_MOTION_DDOT":0},{"OBJECT_NAME":"O3B PFM","OBJECT_ID":"2013-031D","EPOCH":"2026-04-23T11:15:27.446688","MEAN_MOTION":5.00115912,"ECCENTRICITY":0.0004841,"INCLINATION":0.07,"RA_OF_ASC_NODE":358.7224,"ARG_OF_PERICENTER":42.5713,"MEAN_ANOMALY":318.7416,"EPHEMERIS_TYPE":0,"CLASSIFICATION_TYPE":"U","NORAD_CAT_ID":39191,"ELEMENT_SET_NO":999,"REV_AT_EPOCH":23393,"BSTAR":0,"MEAN_MOTION_DOT":-2.6e-7,"MEAN_MOTION_DDOT":0},{"OBJECT_NAME":"O3B FM3","OBJECT_ID":"2014-038A","EPOCH":"2026-04-26T17:36:54.152640","MEAN_MOTION":5.00115633,"ECCENTRICITY":0.0001411,"INCLINATION":0.0514,"RA_OF_ASC_NODE":355.2549,"ARG_OF_PERICENTER":106.0121,"MEAN_ANOMALY":258.7473,"EPHEMERIS_TYPE":0,"CLASSIFICATION_TYPE":"U","NORAD_CAT_ID":40079,"ELEMENT_SET_NO":999,"REV_AT_EPOCH":21046,"BSTAR":0,"MEAN_MOTION_DOT":-2.7e-7,"MEAN_MOTION_DDOT":0},{"OBJECT_NAME":"O3B FM7","OBJECT_ID":"2014-038B","EPOCH":"2026-04-26T01:55:45.576768","MEAN_MOTION":5.00115631,"ECCENTRICITY":0.0004216,"INCLINATION":0.0542,"RA_OF_ASC_NODE":347.5637,"ARG_OF_PERICENTER":28.9904,"MEAN_ANOMALY":343.458,"EPHEMERIS_TYPE":0,"CLASSIFICATION_TYPE":"U","NORAD_CAT_ID":40080,"ELEMENT_SET_NO":999,"REV_AT_EPOCH":21527,"BSTAR":0,"MEAN_MOTION_DOT":-2.7e-7,"MEAN_MOTION_DDOT":0},{"OBJECT_NAME":"O3B FM6","OBJECT_ID":"2014-038C","EPOCH":"2026-04-26T07:22:28.393248","MEAN_MOTION":5.00115694,"ECCENTRICITY":0.0002636,"INCLINATION":0.052,"RA_OF_ASC_NODE":352.0554,"ARG_OF_PERICENTER":41.7448,"MEAN_ANOMALY":326.215,"EPHEMERIS_TYPE":0,"CLASSIFICATION_TYPE":"U","NORAD_CAT_ID":40081,"ELEMENT_SET_NO":999,"REV_AT_EPOCH":21523,"BSTAR":0,"MEAN_MOTION_DOT":-2.7e-7,"MEAN_MOTION_DDOT":0},{"OBJECT_NAME":"O3B FM8","OBJECT_ID":"2014-038D","EPOCH":"2026-04-26T18:14:53.439936","MEAN_MOTION":5.00116025,"ECCENTRICITY":0.0002701,"INCLINATION":0.0524,"RA_OF_ASC_NODE":350.9925,"ARG_OF_PERICENTER":47.1419,"MEAN_ANOMALY":321.8832,"EPHEMERIS_TYPE":0,"CLASSIFICATION_TYPE":"U","NORAD_CAT_ID":40082,"ELEMENT_SET_NO":999,"REV_AT_EPOCH":21537,"BSTAR":0,"MEAN_MOTION_DOT":-2.7e-7,"MEAN_MOTION_DDOT":0},{"OBJECT_NAME":"O3B FM10","OBJECT_ID":"2014-083A","EPOCH":"2026-04-26T14:06:07.752672","MEAN_MOTION":5.00115309,"ECCENTRICITY":0.0002657,"INCLINATION":0.0387,"RA_OF_ASC_NODE":337.8692,"ARG_OF_PERICENTER":58.018,"MEAN_ANOMALY":324.1291,"EPHEMERIS_TYPE":0,"CLASSIFICATION_TYPE":"U","NORAD_CAT_ID":40348,"ELEMENT_SET_NO":999,"REV_AT_EPOCH":20731,"BSTAR":0,"MEAN_MOTION_DOT":-2.7e-7,"MEAN_MOTION_DDOT":0},{"OBJECT_NAME":"O3B FM11","OBJECT_ID":"2014-083B","EPOCH":"2026-04-26T14:24:23.727168","MEAN_MOTION":5.0011556,"ECCENTRICITY":0.0002917,"INCLINATION":0.0578,"RA_OF_ASC_NODE":359.2869,"ARG_OF_PERICENTER":22.513,"MEAN_ANOMALY":338.211,"EPHEMERIS_TYPE":0,"CLASSIFICATION_TYPE":"U","NORAD_CAT_ID":40349,"ELEMENT_SET_NO":999,"REV_AT_EPOCH":20732,"BSTAR":0,"MEAN_MOTION_DOT":-2.7e-7,"MEAN_MOTION_DDOT":0},{"OBJECT_NAME":"O3B FM12","OBJECT_ID":"2014-083C","EPOCH":"2026-04-26T15:03:21.431232","MEAN_MOTION":5.0011589,"ECCENTRICITY":0.0002541,"INCLINATION":0.057,"RA_OF_ASC_NODE":358.9779,"ARG_OF_PERICENTER":33.207,"MEAN_ANOMALY":327.8291,"EPHEMERIS_TYPE":0,"CLASSIFICATION_TYPE":"U","NORAD_CAT_ID":40350,"ELEMENT_SET_NO":999,"REV_AT_EPOCH":20734,"BSTAR":0,"MEAN_MOTION_DOT":-2.7e-7,"MEAN_MOTION_DDOT":0},{"OBJECT_NAME":"O3B FM9","OBJECT_ID":"2014-083D","EPOCH":"2026-04-26T15:41:59.647776","MEAN_MOTION":5.00115928,"ECCENTRICITY":0.0002708,"INCLINATION":0.059,"RA_OF_ASC_NODE":359.1012,"ARG_OF_PERICENTER":35.8424,"MEAN_ANOMALY":325.0726,"EPHEMERIS_TYPE":0,"CLASSIFICATION_TYPE":"U","NORAD_CAT_ID":40351,"ELEMENT_SET_NO":999,"REV_AT_EPOCH":20749,"BSTAR":0,"MEAN_MOTION_DOT":-2.7e-7,"MEAN_MOTION_DDOT":0},{"OBJECT_NAME":"LEO 1 (LEO VANTAGE 1)","OBJECT_ID":"2018-004C","EPOCH":"2026-04-26T17:00:41.223744","MEAN_MOTION":14.67565783,"ECCENTRICITY":0.0350184,"INCLINATION":99.2451,"RA_OF_ASC_NODE":28.2854,"ARG_OF_PERICENTER":237.3699,"MEAN_ANOMALY":119.326,"EPHEMERIS_TYPE":0,"CLASSIFICATION_TYPE":"U","NORAD_CAT_ID":43113,"ELEMENT_SET_NO":999,"REV_AT_EPOCH":42993,"BSTAR":0.0001442,"MEAN_MOTION_DOT":1.996e-5,"MEAN_MOTION_DDOT":0},{"OBJECT_NAME":"O3B FM15","OBJECT_ID":"2018-024A","EPOCH":"2026-04-26T12:30:19.279008","MEAN_MOTION":5.00115707,"ECCENTRICITY":0.0002637,"INCLINATION":0.051,"RA_OF_ASC_NODE":4.2349,"ARG_OF_PERICENTER":29.2807,"MEAN_ANOMALY":326.4995,"EPHEMERIS_TYPE":0,"CLASSIFICATION_TYPE":"U","NORAD_CAT_ID":43231,"ELEMENT_SET_NO":999,"REV_AT_EPOCH":14844,"BSTAR":0,"MEAN_MOTION_DOT":-2.7e-7,"MEAN_MOTION_DDOT":0},{"OBJECT_NAME":"O3B FM16","OBJECT_ID":"2018-024B","EPOCH":"2026-04-26T08:57:51.920640","MEAN_MOTION":5.00115916,"ECCENTRICITY":0.00026845,"INCLINATION":0.0487,"RA_OF_ASC_NODE":8.192,"ARG_OF_PERICENTER":23.6117,"MEAN_ANOMALY":328.2109,"EPHEMERIS_TYPE":0,"CLASSIFICATION_TYPE":"U","NORAD_CAT_ID":43232,"ELEMENT_SET_NO":999,"REV_AT_EPOCH":14835,"BSTAR":0,"MEAN_MOTION_DOT":-2.7e-7,"MEAN_MOTION_DDOT":0},{"OBJECT_NAME":"O3B FM14","OBJECT_ID":"2018-024C","EPOCH":"2026-04-26T00:20:54.276576","MEAN_MOTION":5.00115703,"ECCENTRICITY":0.00028607,"INCLINATION":0.0471,"RA_OF_ASC_NODE":8.2311,"ARG_OF_PERICENTER":27.6841,"MEAN_ANOMALY":324.1024,"EPHEMERIS_TYPE":0,"CLASSIFICATION_TYPE":"U","NORAD_CAT_ID":43233,"ELEMENT_SET_NO":999,"REV_AT_EPOCH":14834,"BSTAR":0,"MEAN_MOTION_DOT":-2.7e-7,"MEAN_MOTION_DDOT":0},{"OBJECT_NAME":"O3B FM13","OBJECT_ID":"2018-024D","EPOCH":"2026-04-26T01:55:44.770656","MEAN_MOTION":5.00115553,"ECCENTRICITY":0.00035807,"INCLINATION":0.0556,"RA_OF_ASC_NODE":328.9915,"ARG_OF_PERICENTER":21.8257,"MEAN_ANOMALY":9.1746,"EPHEMERIS_TYPE":0,"CLASSIFICATION_TYPE":"U","NORAD_CAT_ID":43234,"ELEMENT_SET_NO":999,"REV_AT_EPOCH":14845,"BSTAR":0,"MEAN_MOTION_DOT":-2.7e-7,"MEAN_MOTION_DDOT":0}]
